{"type": "FeatureCollection", "features": [ {"type": "Feature", "properties": {"norad_id": 46271, "name": "COSMOS 2251 DEB", "group": "cosmos-2251-debris", "lat": -38.168952922733666, "lon": 64.2855143193161, "alt_km": 742.0117928844866, "timestamp": "2025-12-13T05:42:57.970795+00:00", "meta": {"OBJECT_NAME": "COSMOS 2251 DEB", "OBJECT_ID": "1993-036BWT", "EPOCH": "2025-12-10T13:23:10.525344", "MEAN_MOTION": 14.51418765, "ECCENTRICITY": 0.0040241, "INCLINATION": 74.0479, "RA_OF_ASC_NODE": 82.3177, "ARG_OF_PERICENTER": 204.0304, "MEAN_ANOMALY": 155.8981, "EPHEMERIS_TYPE": 0, "CLASSIFICATION_TYPE": "U", "NORAD_CAT_ID": 46271, "ELEMENT_SET_NO": 999, "REV_AT_EPOCH": 84610, "BSTAR": 0.00059247, "MEAN_MOTION_DOT": 2.361e-05, "MEAN_MOTION_DDOT": 0}, "tle": {"line1": "1 46271U 93036BWT 25344.55776071  .00002361  00000+0  59247-3 0  9998", "line2": "2 46271  74.0479  82.3177 0040241 204.0304 155.8981 14.51418765846103"}}, "geometry": {"type": "Point", "coordinates": [64.2855143193161, -38.168952922733666]}}, {"type": "Feature", "properties": {"norad_id": 46430, "name": "COSMOS 2251 DEB", "group": "cosmos-2251-debris", "lat": 23.91515803277505, "lon": 2.766814932034572, "alt_km": 744.6956184674855, "timestamp": "2025-12-13T05:42:57.970805+00:00", "meta": {"OBJECT_NAME": "COSMOS 2251 DEB", "OBJECT_ID": "1993-036BWU", "EPOCH": "2025-12-03T09:00:26.936928", "MEAN_MOTION": 14.51043928, "ECCENTRICITY": 0.01031866, "INCLINATION": 73.9151, "RA_OF_ASC_NODE": 14.104, "ARG_OF_PERICENTER": 295.9829, "MEAN_ANOMALY": 63.073, "EPHEMERIS_TYPE": 0, "CLASSIFICATION_TYPE": "U", "NORAD_CAT_ID": 46430, "ELEMENT_SET_NO": 999, "REV_AT_EPOCH": 79547, "BSTAR": 0.0030362826, "MEAN_MOTION_DOT": 0.00012872, "MEAN_MOTION_DDOT": 0}, "tle": {"line1": "1 46430U 93036BWU 25337.37531177  .00012872  00000+0  30363-2 0  9998", "line2": "2 46430  73.9151  14.1040 0103186 295.9829  63.0730 14.51043928795476"}}, "geometry": {"type": "Point", "coordinates": [2.766814932034572, 23.91515803277505]}}, {"type": "Feature", "properties": {"norad_id": 46432, "name": "COSMOS 2251 DEB", "group": "cosmos-2251-debris", "lat": -46.321730094771944, "lon": 92.87182454651382, "alt_km": 1070.3802481048724, "timestamp": "2025-12-13T05:42:57.970815+00:00", "meta": {"OBJECT_NAME": "COSMOS 2251 DEB", "OBJECT_ID": "1993-036BWW", "EPOCH": "2025-12-10T15:12:54.844704", "MEAN_MOTION": 13.36630678, "ECCENTRICITY": 0.047382, "INCLINATION": 73.872, "RA_OF_ASC_NODE": 114.6117, "ARG_OF_PERICENTER": 232.4487, "MEAN_ANOMALY": 146.831, "EPHEMERIS_TYPE": 0, "CLASSIFICATION_TYPE": "U", "NORAD_CAT_ID": 46432, "ELEMENT_SET_NO": 999, "REV_AT_EPOCH": 66938, "BSTAR": 0.0019144, "MEAN_MOTION_DOT": 1.863e-05, "MEAN_MOTION_DDOT": 0}, "tle": {"line1": "1 46432U 93036BWW 25344.63396811  .00001863  00000+0  19144-2 0  9993", "line2": "2 46432  73.8720 114.6117 0473820 232.4487 146.8310 13.36630678669381"}}, "geometry": {"type": "Point", "coordinates": [92.87182454651382, -46.321730094771944]}}, {"type": "Feature", "properties": {"norad_id": 47045, "name": "COSMOS 2251 DEB", "group": "cosmos-2251-debris", "lat": 6.924329946915646, "lon": -33.74069983281444, "alt_km": 773.2726907124243, "timestamp": "2025-12-13T05:42:57.970826+00:00", "meta": {"OBJECT_NAME": "COSMOS 2251 DEB", "OBJECT_ID": "1993-036BWZ", "EPOCH": "2025-12-08T18:12:30.966336", "MEAN_MOTION": 14.3889696, "ECCENTRICITY": 0.00302024, "INCLINATION": 74.0568, "RA_OF_ASC_NODE": 156.4972, "ARG_OF_PERICENTER": 298.2595, "MEAN_ANOMALY": 80.2379, "EPHEMERIS_TYPE": 0, "CLASSIFICATION_TYPE": "U", "NORAD_CAT_ID": 47045, "ELEMENT_SET_NO": 999, "REV_AT_EPOCH": 7748, "BSTAR": 0.00016053941, "MEAN_MOTION_DOT": 4.71e-06, "MEAN_MOTION_DDOT": 0}, "tle": {"line1": "1 47045U 93036BWZ 25342.75869174  .00000471  00000+0  16054-3 0  9994", "line2": "2 47045  74.0568 156.4972 0030202 298.2595  80.2379 14.38896960 77482"}}, "geometry": {"type": "Point", "coordinates": [-33.74069983281444, 6.924329946915646]}}, {"type": "Feature", "properties": {"norad_id": 47048, "name": "COSMOS 2251 DEB", "group": "cosmos-2251-debris", "lat": 53.91330239415391, "lon": 115.02943072865023, "alt_km": 625.7913794338892, "timestamp": "2025-12-13T05:42:57.970837+00:00", "meta": {"OBJECT_NAME": "COSMOS 2251 DEB", "OBJECT_ID": "1993-036BXC", "EPOCH": "2025-12-07T07:15:38.269728", "MEAN_MOTION": 14.52229932, "ECCENTRICITY": 0.0133232, "INCLINATION": 73.9782, "RA_OF_ASC_NODE": 329.4737, "ARG_OF_PERICENTER": 158.8085, "MEAN_ANOMALY": 264.4528, "EPHEMERIS_TYPE": 0, "CLASSIFICATION_TYPE": "U", "NORAD_CAT_ID": 47048, "ELEMENT_SET_NO": 999, "REV_AT_EPOCH": 59611, "BSTAR": 0.0016547605, "MEAN_MOTION_DOT": 7.524e-05, "MEAN_MOTION_DDOT": 0}, "tle": {"line1": "1 47048U 93036BXC 25341.30252627  .00007524  00000+0  16548-2 0  9999", "line2": "2 47048  73.9782 329.4737 0133232 158.8085 264.4528 14.52229932596117"}}, "geometry": {"type": "Point", "coordinates": [115.02943072865023, 53.91330239415391]}}, {"type": "Feature", "properties": {"norad_id": 47051, "name": "COSMOS 2251 DEB", "group": "cosmos-2251-debris", "lat": -61.53221528266233, "lon": 151.0700506918992, "alt_km": 765.1607189002598, "timestamp": "2025-12-13T05:42:57.970847+00:00", "meta": {"OBJECT_NAME": "COSMOS 2251 DEB", "OBJECT_ID": "1993-036BXF", "EPOCH": "2025-12-07T08:40:13.029888", "MEAN_MOTION": 13.67092269, "ECCENTRICITY": 0.03407698, "INCLINATION": 74.1016, "RA_OF_ASC_NODE": 192.3794, "ARG_OF_PERICENTER": 307.1463, "MEAN_ANOMALY": 234.2047, "EPHEMERIS_TYPE": 0, "CLASSIFICATION_TYPE": "U", "NORAD_CAT_ID": 47051, "ELEMENT_SET_NO": 999, "REV_AT_EPOCH": 59864, "BSTAR": 0.0022022876, "MEAN_MOTION_DOT": 2.731e-05, "MEAN_MOTION_DDOT": 0}, "tle": {"line1": "1 47051U 93036BXF 25341.36126192  .00002731  00000+0  22023-2 0  9996", "line2": "2 47051  74.1016 192.3794 0340769 307.1463 234.2047 13.67092269598645"}}, "geometry": {"type": "Point", "coordinates": [151.0700506918992, -61.53221528266233]}}, {"type": "Feature", "properties": {"norad_id": 47052, "name": "COSMOS 2251 DEB", "group": "cosmos-2251-debris", "lat": 56.85664925595561, "lon": 133.43848371805288, "alt_km": 750.4655312778723, "timestamp": "2025-12-13T05:42:57.970881+00:00", "meta": {"OBJECT_NAME": "COSMOS 2251 DEB", "OBJECT_ID": "1993-036BXG", "EPOCH": "2025-12-10T17:46:39.199872", "MEAN_MOTION": 14.35475987, "ECCENTRICITY": 0.00579259, "INCLINATION": 74.0489, "RA_OF_ASC_NODE": 343.9911, "ARG_OF_PERICENTER": 58.7929, "MEAN_ANOMALY": 119.1053, "EPHEMERIS_TYPE": 0, "CLASSIFICATION_TYPE": "U", "NORAD_CAT_ID": 47052, "ELEMENT_SET_NO": 999, "REV_AT_EPOCH": 61760, "BSTAR": 0.00039499211, "MEAN_MOTION_DOT": 1.132e-05, "MEAN_MOTION_DDOT": 0}, "tle": {"line1": "1 47052U 93036BXG 25344.74073148  .00001132  00000+0  39499-3 0  9994", "line2": "2 47052  74.0489 343.9911 0057925  58.7929 119.1053 14.35475987617603"}}, "geometry": {"type": "Point", "coordinates": [133.43848371805288, 56.85664925595561]}}, {"type": "Feature", "properties": {"norad_id": 47053, "name": "COSMOS 2251 DEB", "group": "cosmos-2251-debris", "lat": 58.04190889135533, "lon": 45.98711189225583, "alt_km": 850.1499163308063, "timestamp": "2025-12-13T05:42:57.970892+00:00", "meta": {"OBJECT_NAME": "COSMOS 2251 DEB", "OBJECT_ID": "1993-036BXH", "EPOCH": "2025-12-11T02:15:18.253728", "MEAN_MOTION": 13.59660001, "ECCENTRICITY": 0.03765467, "INCLINATION": 74.0597, "RA_OF_ASC_NODE": 256.721, "ARG_OF_PERICENTER": 70.6385, "MEAN_ANOMALY": 352.548, "EPHEMERIS_TYPE": 0, "CLASSIFICATION_TYPE": "U", "NORAD_CAT_ID": 47053, "ELEMENT_SET_NO": 999, "REV_AT_EPOCH": 28866, "BSTAR": 0.0019220925, "MEAN_MOTION_DOT": 2.258e-05, "MEAN_MOTION_DDOT": 0}, "tle": {"line1": "1 47053U 93036BXH 25345.09396127  .00002258  00000+0  19221-2 0  9999", "line2": "2 47053  74.0597 256.7210 0376546  70.6385 352.5480 13.59660001288664"}}, "geometry": {"type": "Point", "coordinates": [45.98711189225583, 58.04190889135533]}}, {"type": "Feature", "properties": {"norad_id": 47059, "name": "COSMOS 2251 DEB", "group": "cosmos-2251-debris", "lat": -59.67466827995409, "lon": 83.80173045949057, "alt_km": 542.5090228507324, "timestamp": "2025-12-13T05:42:57.970903+00:00", "meta": {"OBJECT_NAME": "COSMOS 2251 DEB", "OBJECT_ID": "1993-036BXP", "EPOCH": "2025-12-12T01:57:33.172416", "MEAN_MOTION": 15.12724951, "ECCENTRICITY": 0.00125007, "INCLINATION": 73.9813, "RA_OF_ASC_NODE": 236.7898, "ARG_OF_PERICENTER": 50.1346, "MEAN_ANOMALY": 17.873, "EPHEMERIS_TYPE": 0, "CLASSIFICATION_TYPE": "U", "NORAD_CAT_ID": 47059, "ELEMENT_SET_NO": 999, "REV_AT_EPOCH": 8295, "BSTAR": 0.0036258701, "MEAN_MOTION_DOT": 0.00064189, "MEAN_MOTION_DDOT": 0}, "tle": {"line1": "1 47059U 93036BXP 25346.08163394  .00064189  00000+0  36259-2 0  9994", "line2": "2 47059  73.9813 236.7898 0012500  50.1346  17.8730 15.12724951 82955"}}, "geometry": {"type": "Point", "coordinates": [83.80173045949057, -59.67466827995409]}}, {"type": "Feature", "properties": {"norad_id": 47062, "name": "COSMOS 2251 DEB", "group": "cosmos-2251-debris", "lat": 27.895534851284985, "lon": 86.04566558627072, "alt_km": 1227.7636297784375, "timestamp": "2025-12-13T05:42:57.970914+00:00", "meta": {"OBJECT_NAME": "COSMOS 2251 DEB", "OBJECT_ID": "1993-036BXS", "EPOCH": "2025-12-07T13:07:54.059808", "MEAN_MOTION": 13.71914539, "ECCENTRICITY": 0.0323451, "INCLINATION": 74.0847, "RA_OF_ASC_NODE": 86.7391, "ARG_OF_PERICENTER": 213.5694, "MEAN_ANOMALY": 159, "EPHEMERIS_TYPE": 0, "CLASSIFICATION_TYPE": "U", "NORAD_CAT_ID": 47062, "ELEMENT_SET_NO": 999, "REV_AT_EPOCH": 55531, "BSTAR": 0.0027789909, "MEAN_MOTION_DOT": 3.637e-05, "MEAN_MOTION_DDOT": 0}, "tle": {"line1": "1 47062U 93036BXS 25341.54715347  .00003637  00000+0  27790-2 0  9996", "line2": "2 47062  74.0847  86.7391 0323451 213.5694 159.0000 13.71914539555310"}}, "geometry": {"type": "Point", "coordinates": [86.04566558627072, 27.895534851284985]}}]}